OBJECT_NAME,OBJECT_ID,EPOCH,MEAN_MOTION,ECCENTRICITY,INCLINATION,RA_OF_ASC_NODE,ARG_OF_PERICENTER,MEAN_ANOMALY,EPHEMERIS_TYPE,CLASSIFICATION_TYPE,NORAD_CAT_ID,ELEMENT_SET_NO,REV_AT_EPOCH,BSTAR,MEAN_MOTION_DOT,MEAN_MOTION_DDOT
CUBEBUG-2 (LO-74),2013-066AA,2026-06-03T07:55:56.668800,14.93641817,.00594532,97.8904,103.2522,73.9566,286.8190,0,U,39440,999,67492,.47122985E-3,.5093E-4,0
FUNCUBE-1 (AO-73),2013-066AE,2026-06-04T14:14:41.227008,15.09331351,.00346471,97.8278,126.7780,245.3456,114.4162,0,U,39444,999,67776,.50552791E-3,.8112E-4,0
UWE-3,2013-066AG,2026-06-04T15:34:58.249920,14.96922367,.00493262,97.8702,111.6406,3.6109,356.5458,0,U,39446,999,67570,.40572144E-3,.4713E-4,0
UNISAT-6,2014-033C,2026-06-04T21:30:43.554816,14.88175664,.00464502,97.7872,308.8262,108.6463,251.9805,0,U,40012,999,64433,.44484581E-3,.4127E-4,0
DUCHIFAT-1,2014-033M,2026-06-04T16:02:21.168384,15.62101054,.00048528,98.0472,213.0954,139.0185,221.1436,0,U,40021,999,65379,.10760804E-2,.95076E-3,0
QB50P1,2014-033R,2026-06-03T13:44:21.385536,15.18040602,.00070591,98.0967,164.7661,272.3380,87.7044,0,U,40025,999,65096,.48089613E-3,.9724E-4,0
LILACSAT-2,2015-049K,2026-06-04T22:50:09.783168,15.51025712,.00053745,97.4655,192.3309,304.6664,55.4081,0,U,40908,999,59385,.34261756E-3,.19843E-3,0
FOX-1A (AO-85),2015-058D,2026-06-04T17:48:52.548768,14.90903790,.01297919,64.7765,317.6571,61.4779,299.9329,0,U,40967,999,11171,.3107946E-3,.3435E-4,0
CAS-2T & KS-1Q,2016-066G,2026-06-04T15:14:10.867200,14.44651724,.03423023,98.3817,231.5141,167.4688,193.5290,0,U,41847,999,50298,.28544745E-3,.1982E-4,0
RADFXSAT (FOX-1B),2017-073E,2026-06-04T04:13:37.045344,15.12484658,.0151546,97.4712,22.6585,14.2510,346.2924,0,U,43017,999,46342,.49454647E-3,.11345E-3,0
DIWATA-2B,2018-084H,2026-06-04T21:34:40.984608,15.00393043,.00117873,98.1152,351.5757,211.2388,148.8135,0,U,43678,999,41437,.27951254E-3,.3451E-4,0
ES'HAIL 2,2018-090A,2026-06-04T22:14:23.346240,1.00272851,.00019523,0.0171,1.2654,105.4261,146.0622,0,U,43700,999,2755,0,.156E-5,0
FOX-1CLIFF (AO-95),2018-099N,2026-06-03T15:21:57.123072,15.26406805,.0009397,97.4392,214.9391,44.7441,315.4554,0,U,43770,999,41115,.50433E-3,.1308E-3,0
ITASAT,2018-099AE,2026-06-04T18:27:04.237920,15.18892222,.00133863,97.4029,207.5292,42.5904,317.6366,0,U,43786,999,41102,.38812472E-3,.805E-4,0
JY1SAT (JO-97),2018-099AX,2026-06-04T15:10:18.350112,15.33239560,.00042916,97.4135,218.4269,324.7580,35.3378,0,U,43803,999,41170,.57876514E-3,.18538E-3,0
UWE-4,2018-111E,2026-06-03T08:40:07.131360,15.45215882,.00082433,97.5860,82.1246,33.3192,326.8573,0,U,43880,999,40864,.73362008E-3,.349E-3,0
TIANYAN 01,2019-093C,2026-06-04T22:16:53.379840,14.86496691,.00146792,97.7534,228.4589,123.2847,236.9778,0,U,44881,999,34959,.48826895E-4,.379E-5,0
RS-44 & BREEZE-KM R/B,2019-096E,2026-06-04T00:38:56.351040,12.79748573,.02175907,82.5219,348.4520,174.8762,185.4640,0,U,44909,999,30066,-.44332679E-4,.1E-7,0
SALSAT,2020-068K,2026-06-03T23:56:12.056928,15.29597840,.00093644,97.8850,157.2614,359.9507,0.1729,0,U,46495,999,31334,.30076162E-3,.8555E-4,0
XW-3 (CAS-9),2021-131B,2026-06-04T23:24:53.999136,14.41345563,.00050814,98.4979,248.4315,124.8087,235.3581,0,U,50466,999,23335,.15382087E-3,.454E-5,0
GREENCUBE (IO-117),2022-080E,2026-06-01T11:09:37.753056,6.42583280,.00088692,70.1435,303.7143,293.3663,66.6064,0,U,53109,999,9105,0,-.3E-7,0
UMKA 1 (RS40S),2023-091G,2026-06-04T22:06:20.213856,15.20670086,.00135397,97.5050,214.6665,156.5250,203.6606,0,U,57172,999,16214,.33519451E-3,.731E-4,0
CUBESX-HSE 3 (RS42S),2023-091N,2026-06-04T21:17:04.313472,15.30889865,.00120298,97.5092,221.3214,132.6483,227.5774,0,U,57178,999,16254,.50647942E-3,.15085E-3,0
MONITOR-3 (RS58S),2023-091Q,2026-06-04T21:13:37.294752,15.27581832,.00128879,97.5083,219.2424,138.9568,221.2643,0,U,57180,999,16241,.44122476E-3,.1186E-3,0
MONITOR-4 (RS57S),2023-091S,2026-06-04T22:18:49.974048,15.27680916,.00128334,97.5077,219.2585,139.2345,220.9857,0,U,57182,999,16242,.46433788E-3,.12523E-3,0
MONITOR-2 (RS39S),2023-091U,2026-06-04T22:14:56.421024,15.18791166,.00121362,97.5073,214.2899,149.0754,211.1197,0,U,57184,999,16209,.28556128E-3,.5882E-4,0
SVYATOBOR 1 (RS60S),2023-091X,2026-06-04T22:22:41.638368,15.26397485,.00107224,97.5089,219.6832,131.4142,228.8019,0,U,57187,999,16244,.42228638E-3,.10937E-3,0
VIZARD-METEO (RS38S),2023-091Z,2026-06-04T21:34:13.729728,15.35617444,.00087461,97.5092,225.1412,113.9484,246.2676,0,U,57189,999,16280,.538477E-3,.18609E-3,0
POLYTECH-UNIVERSE 3 (RS46S),2023-091AB,2026-06-04T21:21:34.522560,15.18991561,.00160106,97.5049,213.7578,166.6736,193.4925,0,U,57191,999,16208,.29194444E-3,.6059E-4,0
UTMN 2 (RS27S),2023-091AP,2026-06-04T21:52:07.557312,15.31737177,.00094782,97.5088,222.9649,120.1397,240.0785,0,U,57203,999,16266,.46996164E-3,.14353E-3,0
